{
  "type": "FeatureCollection",
  "features": [
    {
      "type": "Feature",
      "properties": {
        "norad_id": 32376,
        "name": "COSMO-SKYMED 2",
        "group": "resource",
        "lat": 76.61802979977784,
        "lon": 124.25036140727825,
        "alt_km": 614.2463276046647,
        "timestamp": "2025-12-04T09:47:37.179284+00:00",
        "meta_object_name": "COSMO-SKYMED 2",
        "meta_object_id": "2007-059A",
        "meta_epoch": "2025-12-03T23:42:58.987872",
        "meta_mean_motion": 14.82149719,
        "meta_eccentricity": 0.0001542,
        "meta_inclination": 97.8806,
        "meta_ra_of_asc_node": 159.4435,
        "meta_arg_of_pericenter": 87.8995,
        "meta_mean_anomaly": 272.2394,
        "meta_ephemeris_type": 0,
        "meta_classification_type": "U",
        "meta_norad_cat_id": 32376,
        "meta_element_set_no": 999,
        "meta_rev_at_epoch": 97308,
        "meta_bstar": 0.00017032371,
        "meta_mean_motion_dot": 1.304e-05,
        "meta_mean_motion_ddot": 0,
        "tle_line1": "1 32376U 07059A   25337.98818273  .00001304  00000+0  17032-3 0  9991",
        "tle_line2": "2 32376  97.8806 159.4435 0001542  87.8995 272.2394 14.82149719973082"
      },
      "geometry": {
        "type": "Point",
        "coordinates": [
          124.25036140727825,
          76.61802979977784
        ]
      }
    },
    {
      "type": "Feature",
      "properties": {
        "norad_id": 32382,
        "name": "RADARSAT-2",
        "group": "resource",
        "lat": 29.183116697113775,
        "lon": 167.95609888481997,
        "alt_km": 789.9644705751634,
        "timestamp": "2025-12-04T09:47:37.179294+00:00",
        "meta_object_name": "RADARSAT-2",
        "meta_object_id": "2007-061A",
        "meta_epoch": "2025-12-03T23:01:01.766208",
        "meta_mean_motion": 14.29983957,
        "meta_eccentricity": 0.00010755,
        "meta_inclination": 98.5799,
        "meta_ra_of_asc_node": 342.6768,
        "meta_arg_of_pericenter": 90.7698,
        "meta_mean_anomaly": 269.3608,
        "meta_ephemeris_type": 0,
        "meta_classification_type": "U",
        "meta_norad_cat_id": 32382,
        "meta_element_set_no": 999,
        "meta_rev_at_epoch": 93805,
        "meta_bstar": 8.1334697e-05,
        "meta_mean_motion_dot": 1.66e-06,
        "meta_mean_motion_ddot": 0,
        "tle_line1": "1 32382U 07061A   25337.95904822  .00000166  00000+0  81335-4 0  9997",
        "tle_line2": "2 32382  98.5799 342.6768 0001075  90.7698 269.3608 14.29983957938051"
      },
      "geometry": {
        "type": "Point",
        "coordinates": [
          167.95609888481997,
          29.183116697113775
        ]
      }
    },
    {
      "type": "Feature",
      "properties": {
        "norad_id": 32783,
        "name": "CARTOSAT-2A",
        "group": "resource",
        "lat": -43.96263681640618,
        "lon": 36.08256175148186,
        "alt_km": 637.2012271898357,
        "timestamp": "2025-12-04T09:47:37.179304+00:00",
        "meta_object_name": "CARTOSAT-2A",
        "meta_object_id": "2008-021A",
        "meta_epoch": "2025-12-04T00:15:04.729824",
        "meta_mean_motion": 14.78911986,
        "meta_eccentricity": 0.00124518,
        "meta_inclination": 97.7943,
        "meta_ra_of_asc_node": 28.1063,
        "meta_arg_of_pericenter": 31.9563,
        "meta_mean_anomaly": 328.2401,
        "meta_ephemeris_type": 0,
        "meta_classification_type": "U",
        "meta_norad_cat_id": 32783,
        "meta_element_set_no": 999,
        "meta_rev_at_epoch": 94995,
        "meta_bstar": 0.00024509787,
        "meta_mean_motion_dot": 1.759e-05,
        "meta_mean_motion_ddot": 0,
        "tle_line1": "1 32783U 08021A   25338.01047141  .00001759  00000+0  24510-3 0  9999",
        "tle_line2": "2 32783  97.7943  28.1063 0012451  31.9563 328.2401 14.78911986949954"
      },
      "geometry": {
        "type": "Point",
        "coordinates": [
          36.08256175148186,
          -43.96263681640618
        ]
      }
    },
    {
      "type": "Feature",
      "properties": {
        "norad_id": 33320,
        "name": "HUANJING 1A (HJ-1A)",
        "group": "resource",
        "lat": 47.291741688251825,
        "lon": -41.321155278202156,
        "alt_km": 600.5005609702121,
        "timestamp": "2025-12-04T09:47:37.179314+00:00",
        "meta_object_name": "HUANJING 1A (HJ-1A)",
        "meta_object_id": "2008-041A",
        "meta_epoch": "2025-12-03T23:51:56.367360",
        "meta_mean_motion": 14.83350196,
        "meta_eccentricity": 0.00206181,
        "meta_inclination": 97.6531,
        "meta_ra_of_asc_node": 326.6588,
        "meta_arg_of_pericenter": 61.5697,
        "meta_mean_anomaly": 298.7592,
        "meta_ephemeris_type": 0,
        "meta_classification_type": "U",
        "meta_norad_cat_id": 33320,
        "meta_element_set_no": 999,
        "meta_rev_at_epoch": 92946,
        "meta_bstar": 0.00037646111,
        "meta_mean_motion_dot": 3.046e-05,
        "meta_mean_motion_ddot": 0,
        "tle_line1": "1 33320U 08041A   25337.99440240  .00003046  00000+0  37646-3 0  9997",
        "tle_line2": "2 33320  97.6531 326.6588 0020618  61.5697 298.7592 14.83350196929465"
      },
      "geometry": {
        "type": "Point",
        "coordinates": [
          -41.321155278202156,
          47.291741688251825
        ]
      }
    },
    {
      "type": "Feature",
      "properties": {
        "norad_id": 33321,
        "name": "HUANJING 1B (HJ-1B)",
        "group": "resource",
        "lat": -72.2317660464364,
        "lon": -4.464103459338011,
        "alt_km": 654.4956969975119,
        "timestamp": "2025-12-04T09:47:37.179325+00:00",
        "meta_object_name": "HUANJING 1B (HJ-1B)",
        "meta_object_id": "2008-041B",
        "meta_epoch": "2025-12-03T22:47:28.831200",
        "meta_mean_motion": 14.8278519,
        "meta_eccentricity": 0.0038159,
        "meta_inclination": 97.6396,
        "meta_ra_of_asc_node": 330.3357,
        "meta_arg_of_pericenter": 103.5461,
        "meta_mean_anomaly": 257.0009,
        "meta_ephemeris_type": 0,
        "meta_classification_type": "U",
        "meta_norad_cat_id": 33321,
        "meta_element_set_no": 999,
        "meta_rev_at_epoch": 92947,
        "meta_bstar": 0.00025431796,
        "meta_mean_motion_dot": 2.031e-05,
        "meta_mean_motion_ddot": 0,
        "tle_line1": "1 33321U 08041B   25337.94963925  .00002031  00000+0  25432-3 0  9996",
        "tle_line2": "2 33321  97.6396 330.3357 0038159 103.5461 257.0009 14.82785190929473"
      },
      "geometry": {
        "type": "Point",
        "coordinates": [
          -4.464103459338011,
          -72.2317660464364
        ]
      }
    },
    {
      "type": "Feature",
      "properties": {
        "norad_id": 33331,
        "name": "GEOEYE 1",
        "group": "resource",
        "lat": 81.78287329499578,
        "lon": -48.53641373629586,
        "alt_km": 671.8100049613568,
        "timestamp": "2025-12-04T09:47:37.179336+00:00",
        "meta_object_name": "GEOEYE 1",
        "meta_object_id": "2008-042A",
        "meta_epoch": "2025-12-03T23:32:32.462592",
        "meta_mean_motion": 14.64794112,
        "meta_eccentricity": 0.00029585,
        "meta_inclination": 98.1263,
        "meta_ra_of_asc_node": 49.3707,
        "meta_arg_of_pericenter": 314.9715,
        "meta_mean_anomaly": 45.1248,
        "meta_ephemeris_type": 0,
        "meta_classification_type": "U",
        "meta_norad_cat_id": 33331,
        "meta_element_set_no": 999,
        "meta_rev_at_epoch": 92157,
        "meta_bstar": 0.00024088805,
        "meta_mean_motion_dot": 1.237e-05,
        "meta_mean_motion_ddot": 0,
        "tle_line1": "1 33331U 08042A   25337.98093128  .00001237  00000+0  24089-3 0  9995",
        "tle_line2": "2 33331  98.1263  49.3707 0002958 314.9715  45.1248 14.64794112921575"
      },
      "geometry": {
        "type": "Point",
        "coordinates": [
          -48.53641373629586,
          81.78287329499578
        ]
      }
    },
    {
      "type": "Feature",
      "properties": {
        "norad_id": 33396,
        "name": "THEOS",
        "group": "resource",
        "lat": -26.593625323287103,
        "lon": -147.59562946741167,
        "alt_km": 830.9230470348712,
        "timestamp": "2025-12-04T09:47:37.179347+00:00",
        "meta_object_name": "THEOS",
        "meta_object_id": "2008-049A",
        "meta_epoch": "2025-12-04T05:26:27.356928",
        "meta_mean_motion": 14.20093693,
        "meta_eccentricity": 0.0001093,
        "meta_inclination": 98.588,
        "meta_ra_of_asc_node": 36.5671,
        "meta_arg_of_pericenter": 100.2918,
        "meta_mean_anomaly": 259.8382,
        "meta_ephemeris_type": 0,
        "meta_classification_type": "U",
        "meta_norad_cat_id": 33396,
        "meta_element_set_no": 999,
        "meta_rev_at_epoch": 89029,
        "meta_bstar": 9.7403e-05,
        "meta_mean_motion_dot": 1.65e-06,
        "meta_mean_motion_ddot": 0,
        "tle_line1": "1 33396U 08049A   25338.22670552  .00000165  00000+0  97403-4 0  9993",
        "tle_line2": "2 33396  98.5880  36.5671 0001093 100.2918 259.8382 14.20093693890298"
      },
      "geometry": {
        "type": "Point",
        "coordinates": [
          -147.59562946741167,
          -26.593625323287103
        ]
      }
    }
  ]
}